{
  "name": "SATGUS",
  "line1": "1 62713U 25009DJ  25287.26462969  .00007722  00000+0  67653-3 0  9990",
  "line2": "2 62713  97.7265   6.0585 0001389 206.5800 153.5350 14.96953335 40715",
  "fetched_at": "2025-10-15T00:17:46.409647+00:00"
}